[
    {
        "CCSDS_OMM_VERS": "3.0",
        "COMMENT": "GENERATED VIA SPACE-TRACK.ORG API",
        "CREATION_DATE": "2025-03-02T18:08:23",
        "ORIGINATOR": "18 SPCS",
        "OBJECT_NAME": "BEIDOU 3M3",
        "OBJECT_ID": "2018-003A",
        "CENTER_NAME": "EARTH",
        "REF_FRAME": "TEME",
        "TIME_SYSTEM": "UTC",
        "MEAN_ELEMENT_THEORY": "SGP4",
        "EPOCH": "2025-03-01T20:01:42.761280",
        "MEAN_MOTION": "1.86232275",
        "ECCENTRICITY": "0.00044620",
        "INCLINATION": "54.7366",
        "RA_OF_ASC_NODE": "318.7334",
        "ARG_OF_PERICENTER": "61.0403",
        "MEAN_ANOMALY": "299.0609",
        "EPHEMERIS_TYPE": "0",
        "CLASSIFICATION_TYPE": "U",
        "NORAD_CAT_ID": "43107",
        "ELEMENT_SET_NO": "999",
        "REV_AT_EPOCH": "4855",
        "BSTAR": "0.00000000000000",
        "MEAN_MOTION_DOT": "-0.00000055",
        "MEAN_MOTION_DDOT": "0.0000000000000",
        "SEMIMAJOR_AXIS": "27906.061",
        "PERIOD": "773.228",
        "APOAPSIS": "21540.378",
        "PERIAPSIS": "21515.475",
        "OBJECT_TYPE": "PAYLOAD",
        "RCS_SIZE": "LARGE",
        "COUNTRY_CODE": "PRC",
        "LAUNCH_DATE": "2018-01-11",
        "SITE": "XSC",
        "DECAY_DATE": null,
        "FILE": "4657142",
        "GP_ID": "282086533",
        "TLE_LINE0": "0 BEIDOU 3M3",
        "TLE_LINE1": "1 43107U 18003A   25060.83452270 -.00000055  00000-0  00000-0 0  9992",
        "TLE_LINE2": "2 43107  54.7366 318.7334 0004462  61.0403 299.0609  1.86232275 48550"
    }
]